[{"OBJECT_NAME":"IRIDIUM 133","OBJECT_ID":"2017-061A","EPOCH":"2026-03-09T23:02:46.694688","MEAN_MOTION":14.34217647,"ECCENTRICITY":0.0002155,"INCLINATION":86.3917,"RA_OF_ASC_NODE":66.7467,"ARG_OF_PERICENTER":89.8241,"MEAN_ANOMALY":270.3201,"EPHEMERIS_TYPE":0,"CLASSIFICATION_TYPE":"U","NORAD_CAT_ID":42955,"ELEMENT_SET_NO":999,"REV_AT_EPOCH":44055,"BSTAR":5.149012e-6,"MEAN_MOTION_DOT":3.4e-7,"MEAN_MOTION_DDOT":0},{"OBJECT_NAME":"FENGYUN 1C DEB","OBJECT_ID":"1999-025EVQ","EPOCH":"2026-03-08T04:18:16.536384","MEAN_MOTION":14.15258027,"ECCENTRICITY":0.00916196,"INCLINATION":99.2943,"RA_OF_ASC_NODE":209.2642,"ARG_OF_PERICENTER":321.3583,"MEAN_ANOMALY":38.1057,"EPHEMERIS_TYPE":0,"CLASSIFICATION_TYPE":"U","NORAD_CAT_ID":38824,"ELEMENT_SET_NO":999,"REV_AT_EPOCH":70345,"BSTAR":0.0035397581,"MEAN_MOTION_DOT":7.128e-5,"MEAN_MOTION_DDOT":0}]
